1 45086U 20006AU  22365.42809134  .00050509  00000-0  17814-2 0  9992
2 45086  52.9823  42.3106 0002713 334.1079  25.9782 15.28785132161845
1 45086U 20006AU  23001.40867286  .00048304  00000-0  16995-2 0  9999
2 45086  52.9820  37.7468 0002720 340.3879  19.7013 15.28884607161997
1 45086U 20006AU  23001.80088731  .00051353  00000-0  18030-2 0  9993
2 45086  52.9817  35.9217 0002774 343.5073  16.5834 15.28925332162050
1 45086U 20006AU  23002.38918881  .00043303  00000-0  15211-2 0  9999
2 45086  52.9814  33.1826 0002705 346.6806  13.4120 15.28986604162148
1 45086U 20006AU  23002.78137822  .00042591  00000-0  14949-2 0  9996
2 45086  52.9811  31.3572 0002737 349.7304  10.3637 15.29020154162201
1 45086U 20006AU  23003.30428227  .00044008  00000-0  15416-2 0  9992
2 45086  52.9809  28.9219 0002730 351.2297   8.8653 15.29069401162286
1 45086U 20006AU  23004.35003806  .00057665  00000-0  20055-2 0  9998
2 45086  52.9802  24.0523 0002779 356.7858   3.3121 15.29182296162446
1 45086U 20006AU  23004.87288345  .00057976  00000-0  20119-2 0  9994
2 45086  52.9798  21.6178 0002843   0.0666   0.0332 15.29251054162523
1 45086U 20006AU  23005.33035298  .00046161  00000-0  16041-2 0  9996
2 45086  52.9796  19.4864 0002713   1.7986 358.3021 15.29309016162590
1 45086U 20006AU  23005.72245677  .00051707  00000-0  17914-2 0  9995
2 45086  52.9795  17.6602 0002747   4.0080 356.0940 15.29356912162656
1 45086U 20006AU  23006.31058669  .00064030  00000-0  22059-2 0  9993
2 45086  52.9794  14.9197 0002625   6.5919 353.5113 15.29443128162747
1 45086U 20006AU  23007.29073842  .00064428  00000-0  22108-2 0  9997
2 45086  52.9796  10.3527 0002623  11.7627 348.3432 15.29569472162891
1 45086U 20006AU  23008.27081023  .00059485  00000-0  20359-2 0  9999
2 45086  52.9799   5.7849 0002643  16.0647 344.0434 15.29690144163045
1 45086U 20006AU  23009.25079708  .00066251  00000-0  22543-2 0  9991
2 45086  52.9806   1.2171 0002642  22.7976 337.3139 15.29830075163193
1 45086U 20006AU  23010.36134534  .00068331  00000-0  23130-2 0  9998
2 45086  52.9811 356.0390 0002639  30.3521 329.7630 15.29984587163368
1 45086U 20006AU  23010.68795400  .00069625  00000-0  23525-2 0  9993
2 45086  52.9813 354.5168 0002699  32.2795 327.8368 15.30035034163415
1 45086U 20006AU  23011.21050537  .00081128  00000-0  27276-2 0  9997
2 45086  52.9818 352.0793 0002669  36.1729 323.9449 15.30122467163913
1 45086U 20006AU  23011.92896531  .00083819  00000-0  28062-2 0  9990
2 45086  52.9818 348.7289 0002737  39.7100 320.4098 15.30242653163601
1 45086U 20006AU  23012.90858436  .00085665  00000-0  28512-2 0  9992
2 45086  52.9819 344.1588 0002746  46.3065 313.8160 15.30421761163759
1 45086U 20006AU  23013.16979689  .00084594  00000-0  28120-2 0  9990
2 45086  52.9819 342.9390 0002650  49.7917 310.3313 15.30469077163791
1 45086U 20006AU  23013.62689922  .00087620  00000-0  29034-2 0  9997
2 45086  52.9819 340.8065 0002715  52.5561 307.5684 15.30553278163860
1 45086U 20006AU  23015.58558513  .00111575  00000-0  36329-2 0  9997
2 45086  52.9808 331.6630 0002614  65.8898 294.2374 15.30987154164168
1 45086U 20006AU  23016.56469808  .00117894  00000-0  38039-2 0  9994
2 45086  52.9800 327.0895 0002649  73.1021 287.0268 15.31247033164315
1 45086U 20006AU  23017.54367099  .00107290  00000-0  34465-2 0  9990
2 45086  52.9794 322.5155 0002604  81.5008 278.6286 15.31444497164460
1 45086U 20006AU  23018.52251604  .00122694  00000-0  39059-2 0  9992
2 45086  52.9793 317.9403 0002563  89.8234 270.3059 15.31654620164614
1 45086U 20006AU  23019.24024559  .00098381  00000-0  31289-2 0  9991
2 45086  52.9796 314.5840 0002546  96.7923 263.3366 15.31813569164722
1 45086U 20006AU  23020.21884649  .00105078  00000-0  33152-2 0  9997
2 45086  52.9799 310.0075 0002557 105.6685 254.4597 15.32034143164870
1 45086U 20006AU  23025.43570565  .00084629  00000-0  25885-2 0  9997
2 45086  52.9794 285.5850 0002643 135.3426 224.7787 15.33137341165676
1 45086U 20006AU  23026.08756578  .00097059  00000-0  29512-2 0  9991
2 45086  52.9788 282.5301 0002659 140.2752 219.8442 15.33254781165773
1 45086U 20006AU  23027.06526519  .00083931  00000-0  25450-2 0  9991
2 45086  52.9781 277.9474 0002660 146.2525 213.8644 15.33416809165927
1 45086U 20006AU  23027.84735420  .00074209  00000-0  22461-2 0  9997
2 45086  52.9778 274.2816 0002648 148.6249 211.4909 15.33534220166048
1 45086U 20006AU  23028.04286721  .00076773  00000-0  23204-2 0  9999
2 45086  52.9776 273.3652 0002684 149.7970 210.3185 15.33563266166076
1 45086U 20006AU  23028.89005056  .00060978  00000-0  18427-2 0  9993
2 45086  52.9778 269.3929 0002532 153.7732 206.3397 15.33675267166203
1 45086U 20006AU  23029.93265328  .00055449  00000-0  16711-2 0  9990
2 45086  52.9780 264.5034 0002534 160.3965 199.7133 15.33803201166365
1 45086U 20006AU  23030.06297286  .00055086  00000-0  16595-2 0  9991
2 45086  52.9779 263.8921 0002567 160.7366 199.3731 15.33818916166386
1 45086U 20006AU  23030.91001931  .00052833  00000-0  15879-2 0  9996
2 45086  52.9783 259.9192 0002489 163.9104 196.1975 15.33912114166510
1 45086U 20006AU  23031.04032971  .00052727  00000-0  15840-2 0  9999
2 45086  52.9783 259.3077 0002504 164.1630 195.9448 15.33927089166532
1 45086U 20006AU  23031.88731335  .00061155  00000-0  18272-2 0  9998
2 45086  52.9784 255.3344 0002385 167.5347 192.5712 15.34033533166669
